EYESAT-1 (AO-27)        
1 22825U 93061C   17122.71223248  .00000024  00000-0  26785-4 0  9998
2 22825  98.8079  87.7457 0009516 102.5314 257.6933 14.29994356230638
CUTE-1 (CO-55)          
1 27844U 03031E   17122.90322074  .00000068  00000-0  50375-4 0  9990
2 27844  98.6905 132.5672 0010879 115.5716 244.6587 14.22032729717846
CUBESAT XI-IV (CO-57)   
1 27848U 03031J   17122.96110875  .00000049  00000-0  42341-4 0  9997
2 27848  98.7000 132.8637 0010687 123.8160 236.4036 14.21647863717740
CUBESAT XI 5            
1 28895U 05043F   17122.43024923  .00000190  00000-0  45478-4 0  9996
2 28895  97.8598 286.8447 0015454 290.0042  69.9497 14.63381807613796
CUTE-1.7+APD II (CO-65) 
1 32785U 08021C   17122.71342299  .00000303  00000-0  38773-4 0  9994
2 32785  97.5701 149.0545 0012099 324.9232  35.1187 14.87860766488064
COMPASS-1               
1 32787U 08021E   17122.62921245  .00000669  00000-0  70283-4 0  9997
2 32787  97.5643 157.5604 0011024 293.1355  66.8703 14.92545966488705
AAUSAT-II               
1 32788U 08021F   17122.61827683  .00000315  00000-0  34794-4 0  9993
2 32788  97.5632 160.3111 0010366 284.8981  75.1091 14.93814321488774
DELFI-C3 (DO-64)        
1 32789U 08021G   17122.74113280  .00001139  00000-0  85122-4 0  9995
2 32789  97.5631 181.9252 0011084 253.1602 106.8409 15.04726210489932
CANX-2                  
1 32790U 08021H   17122.61760793  .00000250  00000-0  33220-4 0  9995
2 32790  97.5678 147.3694 0012861 326.7244  33.3163 14.87591062487983
SEEDS II (CO-66)        
1 32791U 08021J   17122.65140418  .00000389  00000-0  45561-4 0  9990
2 32791  97.5674 153.2181 0012117 308.9605  51.0533 14.90181928488286
SWISSCUBE               
1 35932U 09051B   17122.36763797  .00000211  00000-0  58723-4 0  9991
2 35932  98.4884 260.0703 0008309  40.3958 319.7855 14.55997174403616
BEESAT                  
1 35933U 09051C   17122.90748337  .00000160  00000-0  47134-4 0  9992
2 35933  98.4922 261.9022 0006735  52.7938 307.3873 14.56118708403757
ITUPSAT 1               
1 35935U 09051E   17122.32051161  .00000145  00000-0  44414-4 0  9993
2 35935  98.5032 261.5578 0008942  45.8637 314.3294 14.55313703403537
TISAT 1                 
1 36799U 10035E   17122.89266179  .00000632  00000-0  70991-4 0  9995
2 36799  98.0552 244.7208 0013816 114.1000 246.1664 14.90346431368830
M-CUBED & EXP-1 PRIME   
1 37855U 11061F   17122.45999617  .00002529  00000-0  14001-3 0  9997
2 37855 101.7217 330.6548 0181260 216.5895 142.2822 15.02869000299453
HORYU 2                 
1 38340U 12025D   17122.91772701  .00000286  00000-0  50327-4 0  9992
2 38340  98.3766 125.2457 0013030  77.6965 282.5701 14.75312361256205
STRAND-1                
1 39090U 13009E   17122.48969737  .00000034  00000-0  27291-4 0  9992
2 39090  98.5584 328.3473 0010409  77.4377 282.7972 14.34961957218929
BRITE-AUSTRIA           
1 39091U 13009F   17122.78477192  .00000038  00000-0  28756-4 0  9996
2 39091  98.5546 328.0422 0011730  83.5333 276.7188 14.35024706218977
UNIBRITE                
1 39092U 13009G   17122.78015720  .00000011  00000-0  19235-4 0  9995
2 39092  98.5555 327.7331 0010589  77.7454 282.4916 14.34899350218969
AIST-2                  
1 39133U 13015D   17122.96100766  .00000268  00000-0  31666-4 0  9999
2 39133  64.8739  68.4793 0035709 290.0796  69.6482 15.04256886221108
SOMP                    
1 39134U 13015E   17122.94887438  .00001436  00000-0  79961-4 0  9994
2 39134  64.8695  12.4617 0033749 280.3903  79.3420 15.17659152222230
BEESAT-2                
1 39136U 13015G   17122.95923018  .00001336  00000-0  80924-4 0  9992
2 39136  64.8714  22.4933 0030704 290.3722  69.4105 15.14971625222031
NEE-01 PEGASUS          
1 39151U 13018B   17122.72777839  .00000241  00000-0  39094-4 0  9991
2 39151  97.9823 214.5372 0016912 192.6628 167.4161 14.79695358216817
CUBEBUG-1 (CAPITAN BETO)
1 39153U 13018D   17122.79953435  .00000276  00000-0  43334-4 0  9998
2 39153  97.9843 215.3414 0016866 190.7548 169.3305 14.80155746216876
ESTCUBE 1               
1 39161U 13021C   17122.85548526  .00000297  00000-0  55470-4 0  9996
2 39161  98.0270 209.4471 0008043 290.8127  69.2198 14.71876631214083
POPACS 1                
1 39268U 13055D   17122.83248440  .00008441  00000-0  24415-3 0  9994
2 39268  81.0057  55.5113 0653193 352.7423   6.4630 14.30512666185708
POPACS 2                
1 39269U 13055E   17122.89098206  .00006458  00000-0  18988-3 0  9998
2 39269  81.0165  69.4052 0703056  29.1051 334.7463 14.19589230183652
POPACS 3                
1 39270U 13055F   17122.30678386  .00002795  00000-0  87064-4 0  9991
2 39270  81.0188  77.5859 0727335  54.0225 312.6182 14.12937980163596
FIREFLY                 
1 39404U 13064AA  17122.52944609  .00035717  00000-0  25562-3 0  9992
2 39404  40.4990 231.0700 0005404  73.1842 286.9577 15.72915045194062
ZACUBE-1 (TSHEPISOSAT)  
1 39417U 13066B   17122.68083518  .00000288  00000-0  42831-4 0  9992
2 39417  97.6344 167.1184 0060708  59.7378 300.9825 14.80682140186047
WNISAT-1                
1 39423U 13066H   17122.88402628  .00000145  00000-0  38660-4 0  9995
2 39423  97.6802 115.0148 0174733 219.5101 139.3260 14.52831321182655
TRITON-1                
1 39427U 13066M   17122.91428267  .00000252  00000-0  48086-4 0  9992
2 39427  97.6403 141.3012 0115626 133.2963 227.7957 14.67432972184216
GOMX 1                  
1 39430U 13066Q   17122.90380474  .00000226  00000-0  50104-4 0  9997
2 39430  97.6649 125.3956 0151812 185.4825 174.4721 14.58842673183145
BRITE-PL                
1 39431U 13066R   17122.95818487  .00000073  00000-0  26314-4 0  9999
2 39431  97.7030 104.7369 0201270 255.6424 102.2353 14.46833109181711
HUMSAT-D                
1 39433U 13066T   17122.69875582  .00000494  00000-0  54595-4 0  9990
2 39433  97.6561 187.1569 0031354  11.4042 348.7880 14.91377458186050
EAGLE 2                 
1 39436U 13066W   17122.52885944  .00018925  00000-0  55437-3 0  9991
2 39436  97.7047 226.3439 0011187 237.9976 122.0179 15.35209276188493
CUBEBUG-2 (LO-74)       
1 39440U 13066AA  17122.67137005  .00000292  00000-0  47721-4 0  9996
2 39440  97.6330 156.6465 0082431  88.1994 272.8655 14.75423049184186
NEE-02 KRYSAOR          
1 39441U 13066AB  17122.58531704  .00000209  00000-0  36786-4 0  9998
2 39441  97.6311 155.3423 0083779  91.7251 269.3557 14.74597125184108
FUNCUBE-1 (AO-73)       
1 39444U 13066AE  17122.68288599  .00000372  00000-0  52645-4 0  9996
2 39444  97.6358 168.1159 0059828  56.7604 303.9324 14.81407906184282
UWE-3                   
1 39446U 13066AG  17122.58465000  .00000317  00000-0  48978-4 0  9994
2 39446  97.6325 161.5252 0072003  74.4736 286.4410 14.77955473184465
BRITE-TORONTO           
1 40020U 14033L   17122.59112401  .00000093  00000-0  24183-4 0  9997
2 40020  97.8427 355.4023 0088959 111.6951 249.3754 14.66378408153415
DUCHIFAT-1              
1 40021U 14033M   17122.89737816  .00000603  00000-0  68600-4 0  9993
2 40021  97.9206  35.9933 0014649  89.9738 270.3158 14.89837701155850
FLOCK 1C-10             
1 40023U 14033P   17122.75930708  .00000973  00000-0  11026-3 0  9994
2 40023  97.9237  34.9905 0014201  93.9062 266.3780 14.88638124155744
NANOSATC-BR1            
1 40024U 14033Q   17122.54309782  .00000451  00000-0  53667-4 0  9993
2 40024  97.9168  34.5970 0013933  91.8899 268.3914 14.89169888155234
QB50P1                  
1 40025U 14033R   17122.70003229  .00000387  00000-0  47807-4 0  9996
2 40025  97.9151  33.8623 0014069  93.9448 266.3377 14.88382439155215
FLOCK 1C-7              
1 40026U 14033S   17122.73131855  .00001316  00000-0  14446-3 0  9992
2 40026  97.9269  35.6242 0012575  89.9602 270.3065 14.89373744155781
FLOCK 1C-1              
1 40027U 14033T   17122.72921132  .00001245  00000-0  13913-3 0  9996
2 40027  97.9239  35.1711 0014012  91.5310 268.7521 14.88703384155759
POPSAT-HIP-1            
1 40028U 14033U   17122.86210786  .00000679  00000-0  79443-4 0  9999
2 40028  97.9187  34.2838 0015412  90.0703 270.2283 14.88256139155739
FLOCK 1C-2              
1 40029U 14033V   17122.82580603  .00000939  00000-0  10636-3 0  9991
2 40029  97.9260  35.1340 0015685  88.3875 271.9127 14.88719593155757
FLOCK 1C-4              
1 40031U 14033X   17122.70323409  .00000711  00000-0  82287-4 0  9990
2 40031  97.9253  35.0046 0015948  87.0417 273.2635 14.88578154155726
QB50P2                  
1 40032U 14033Y   17122.46499305  .00000370  00000-0  46437-4 0  9991
2 40032  97.9126  32.7942 0013514  90.0501 270.2264 14.87941142155129
FLOCK 1C-11             
1 40033U 14033Z   17122.33875163  .00001571  00000-0  16807-3 0  9999
2 40033  97.9269  35.9090 0013289  82.3462 277.9261 14.90124958155769
ANTELSAT                
1 40034U 14033AA  17122.79199250  .00000299  00000-0  52166-4 0  9991
2 40034  97.8654   8.1159 0060584  79.0803 281.7214 14.73668074153703
FLOCK 1C-9              
1 40035U 14033AB  17122.54733942  .00001232  00000-0  13753-3 0  9993
2 40035  97.9279  35.1938 0013149  83.2466 277.0216 14.88774237155718
FLOCK 1C-6              
1 40036U 14033AC  17122.70595105  .00000862  00000-0  97782-4 0  9992
2 40036  97.9284  35.5463 0013575  82.7471 277.5291 14.88875421155754
PERSEUS-M2              
1 40037U 14033AD  17122.68163487  .00000129  00000-0  20957-4 0  9990
2 40037  97.9151  31.6748 0015947  94.1629 266.1409 14.86209332155056
FLOCK 1C-5              
1 40038U 14033AE  17122.71303108  .00000902  00000-0  10206-3 0  9995
2 40038  97.9274  35.3750 0015845  81.7865 278.5181 14.88873176155743
PERSEUS-M1              
1 40039U 14033AF  17122.60256102  .00000151  00000-0  23671-4 0  9992
2 40039  97.9158  31.1820 0015794  90.6846 269.6179 14.85833849154992
FLOCK 1C-8              
1 40040U 14033AG  17122.76273732  .00001025  00000-0  10988-3 0  9996
2 40040  97.9301  37.3556 0014603  70.8637 289.4163 14.90802163155865
